NORAD_CAT_ID,OBJECT_NAME,OBJECT_TYPE,EPOCH,MEAN_MOTION,ECCENTRICITY,INCLINATION,RA_OF_ASC_NODE,ARG_OF_PERICENTER,MEAN_ANOMALY,BSTAR,MEAN_MOTION_DOT,MEAN_MOTION_DDOT,TLE_LINE0,TLE_LINE1,TLE_LINE2,SEMIMAJOR_AXIS,PERIOD,APOGEE,PERIGEE,DECAYED
49459.0,STARLINK-3141,PAYLOAD,2023-10-20 22:16:38,15.08835731,0.0001451,53.2157,168.1197,101.4743,258.6412,-0.00014141,-2.538e-05,0.0,0 STARLINK-3141,1 49459U 21104BD  23293.92822412 -.00002538  00000-0 -14141-3 0  9992,2 49459  53.2157 168.1197 0001451 101.4743 258.6412 15.08835731107322,6917.893,95.438,540.762,538.755,0.0
49459.0,STARLINK-3141,PAYLOAD,2023-10-21 01:27:24,15.08835276,0.0001459,53.2159,167.525,93.1432,266.9728,-8.9279e-05,-1.708e-05,0.0,0 STARLINK-3141,1 49459U 21104BD  23294.06070586 -.00001708  00000-0 -89279-4 0  9998,2 49459  53.2159 167.5250 0001459  93.1432 266.9728 15.08835276107345,6917.895,95.438,540.769,538.751,0.0
49459.0,STARLINK-3141,PAYLOAD,2023-10-21 18:56:38,15.08858621,0.0001329,53.2164,164.2584,84.0518,276.0626,-0.0001946,-3.385e-05,0.0,0 STARLINK-3141,1 49459U 21104BD  23294.78933769 -.00003385  00000-0 -19460-3 0  9995,2 49459  53.2164 164.2584 0001329  84.0518 276.0626 15.08858621108524,6917.823,95.436,540.608,538.769,0.0
49459.0,STARLINK-3141,PAYLOAD,2023-10-21 22:07:25,15.0886047,0.0001554,53.2156,163.66,82.4662,277.6507,0.00090069,0.00014084,0.0,0 STARLINK-3141,1 49459U 21104BD  23294.92182238  .00014084  00000-0  90069-3 0  9998,2 49459  53.2156 163.6600 0001554  82.4662 277.6507 15.08860470107472,6917.818,95.436,540.758,538.608,0.0
49459.0,STARLINK-3141,PAYLOAD,2023-10-22 20:22:50,15.0884018,0.0001532,53.2157,159.4974,89.9407,270.1761,0.00040352,6.14e-05,0.0,0 STARLINK-3141,1 49459U 21104BD  23295.84919103  .00006140  00000-0  40352-3 0  9993,2 49459  53.2157 159.4974 0001532  89.9407 270.1761 15.08840180108685,6917.88,95.438,540.805,538.685,0.0
49459.0,STARLINK-3141,PAYLOAD,2023-10-22 21:58:13,15.08833771,0.0001528,53.2159,159.2001,93.1187,266.998,0.00021484,3.132e-05,0.0,0 STARLINK-3141,1 49459U 21104BD  23295.91543089  .00003132  00000-0  21484-3 0  9990,2 49459  53.2159 159.2001 0001528  93.1187 266.9980 15.08833771107620,6917.899,95.438,540.821,538.707,0.0
49459.0,STARLINK-3141,PAYLOAD,2023-10-23 07:30:32,15.0883485,0.000148,53.2157,157.4155,94.2076,265.9086,0.00087127,0.00013604,0.0,0 STARLINK-3141,1 49459U 21104BD  23296.31287575  .00013604  00000-0  87127-3 0  9991,2 49459  53.2157 157.4155 0001480  94.2076 265.9086 15.08834850108754,6917.896,95.438,540.785,538.737,0.0
49459.0,STARLINK-3141,PAYLOAD,2023-10-23 21:49:00,15.08847934,0.0001469,53.2155,154.7392,92.0143,268.1017,0.00070865,0.00011011,0.0,0 STARLINK-3141,1 49459U 21104BD  23296.90903477  .00011011  00000-0  70865-3 0  9993,2 49459  53.2155 154.7392 0001469  92.0143 268.1017 15.08847934107770,6917.856,95.437,540.737,538.705,0.0
49459.0,STARLINK-3141,PAYLOAD,2023-10-24 07:21:19,15.08847107,0.0001394,53.215,152.9554,95.4684,264.6467,0.00045305,6.931e-05,0.0,0 STARLINK-3141,1 49459U 21104BD  23297.30647379  .00006931  00000-0  45305-3 0  9990,2 49459  53.2150 152.9554 0001394  95.4684 264.6467 15.08847107108907,6917.859,95.437,540.688,538.759,0.0
49459.0,STARLINK-3141,PAYLOAD,2023-10-25 00:50:32,15.08874802,0.0001339,53.2144,149.6839,89.6229,270.4917,0.00090013,0.0001408,0.0,0 STARLINK-3141,1 49459U 21104BD  23298.03510038  .00014080  00000-0  90013-3 0  9992,2 49459  53.2144 149.6839 0001339  89.6229 270.4917 15.08874802109018,6917.774,95.435,540.565,538.713,0.0
49459.0,STARLINK-3141,PAYLOAD,2023-10-25 21:30:34,15.08810567,0.0001341,53.2136,145.8176,93.2146,266.9,-0.00090284,-0.00014616,0.0,0 STARLINK-3141,1 49459U 21104BD  23298.89623247 -.00014616  00000-0 -90284-3 0  9990,2 49459  53.2136 145.8176 0001341  93.2146 266.9000 15.08810567108079,6917.97,95.439,540.763,538.908,0.0
49459.0,STARLINK-3141,PAYLOAD,2023-10-26 03:52:07,15.08805624,0.0001431,53.2145,144.6293,94.4282,265.6874,-0.00067436,-0.00010994,0.0,0 STARLINK-3141,1 49459U 21104BD  23299.16120031 -.00010994  00000-0 -67436-3 0  9992,2 49459  53.2145 144.6293 0001431  94.4282 265.6874 15.08805624109186,6917.985,95.44,540.84,538.861,0.0
49459.0,STARLINK-3141,PAYLOAD,2023-10-26 18:10:36,15.08820988,0.0001542,53.2151,141.953,91.0023,269.1145,0.00050171,7.702e-05,0.0,0 STARLINK-3141,1 49459U 21104BD  23299.75736928  .00007702  00000-0  50171-3 0  9994,2 49459  53.2151 141.9530 0001542  91.0023 269.1145 15.08820988109276,6917.939,95.439,540.87,538.737,0.0
49459.0,STARLINK-3141,PAYLOAD,2023-10-26 21:21:23,15.08826899,0.000154,53.2143,141.3578,103.3967,256.7197,0.00080973,0.00012618,0.0,0 STARLINK-3141,1 49459U 21104BD  23299.88985022  .00012618  00000-0  80973-3 0  9994,2 49459  53.2143 141.3578 0001540 103.3967 256.7197 15.08826899108225,6917.92,95.438,540.851,538.72,0.0
49459.0,STARLINK-3141,PAYLOAD,2023-10-27 13:15:14,15.08849107,0.0001517,53.214,138.3846,97.4362,262.6802,0.0009344,0.00014618,0.0,0 STARLINK-3141,1 49459U 21104BD  23300.55225151  .00014618  00000-0  93440-3 0  9996,2 49459  53.2140 138.3846 0001517  97.4362 262.6802 15.08849107108329,6917.853,95.437,540.767,538.668,0.0
49459.0,STARLINK-3141,PAYLOAD,2023-10-27 19:36:46,15.08861219,0.0001518,53.2137,137.1953,96.4798,263.6367,0.00095063,0.00014882,0.0,0 STARLINK-3141,1 49459U 21104BD  23300.81720717  .00014882  00000-0  95063-3 0  9999,2 49459  53.2137 137.1953 0001518  96.4798 263.6367 15.08861219109432,6917.816,95.436,540.731,538.63,0.0
49459.0,STARLINK-3141,PAYLOAD,2023-10-28 06:44:28,15.08865361,0.0002363,53.2142,135.1118,97.5441,262.582,0.00092802,0.00014523,0.0,0 STARLINK-3141,1 49459U 21104BD  23301.28088345  .00014523  00000-0  92802-3 0  9995,2 49459  53.2142 135.1118 0002363  97.5441 262.5820 15.08865361108438,6917.803,95.436,541.303,538.033,0.0
49459.0,STARLINK-3141,PAYLOAD,2023-10-28 19:27:32,15.08866906,0.0002232,53.216,132.7322,99.1839,260.9406,0.00072123,0.00011217,0.0,0 STARLINK-3141,1 49459U 21104BD  23301.81079718  .00011217  00000-0  72123-3 0  9999,2 49459  53.2160 132.7322 0002232  99.1839 260.9406 15.08866906109587,6917.798,95.436,541.207,538.119,0.0
49459.0,STARLINK-3141,PAYLOAD,2023-10-29 12:56:47,15.0885746,0.0001697,53.2131,129.461,90.2545,269.8642,0.00067713,0.0001051,0.0,0 STARLINK-3141,1 49459U 21104BD  23302.53943367  .00010510  00000-0  67713-3 0  9993,2 49459  53.2131 129.4610 0001697  90.2545 269.8642 15.08857460109695,6917.827,95.436,540.866,538.518,0.0
49459.0,STARLINK-3141,PAYLOAD,2023-10-29 22:29:05,15.08857227,0.0001671,53.2151,127.6791,91.6274,268.491,0.00016066,2.271e-05,0.0,0 STARLINK-3141,1 49459U 21104BD  23302.93686874  .00002271  00000-0  16066-3 0  9994,2 49459  53.2151 127.6791 0001671  91.6274 268.4910 15.08857227108685,6917.828,95.436,540.849,538.537,0.0
49459.0,STARLINK-3141,PAYLOAD,2023-10-30 12:47:34,15.08838768,0.000147,53.215,125.0023,93.3519,266.7641,-4.2188e-05,-9.59e-06,0.0,0 STARLINK-3141,1 49459U 21104BD  23303.53303562 -.00000959  00000-0 -42188-4 0  9999,2 49459  53.2150 125.0023 0001470  93.3519 266.7641 15.08838768109842,6917.884,95.438,540.766,538.732,0.0
49459.0,STARLINK-3141,PAYLOAD,2023-10-30 19:09:06,15.08839947,0.0001375,53.2147,123.8132,88.7695,271.3455,-1.4613e-05,-5.2e-06,0.0,0 STARLINK-3141,1 49459U 21104BD  23303.79799503 -.00000520  00000-0 -14613-4 0  9997,2 49459  53.2147 123.8132 0001375  88.7695 271.3455 15.08839947108813,6917.881,95.438,540.697,538.794,0.0
49459.0,STARLINK-3141,PAYLOAD,2023-10-31 12:38:21,15.08839042,0.0001546,53.2154,120.5428,93.2631,266.8538,-4.8976e-07,-2.96e-06,0.0,0 STARLINK-3141,1 49459U 21104BD  23304.52663580 -.00000296  00000-0 -48976-6 0  9995,2 49459  53.2154 120.5428 0001546  93.2631 266.8538 15.08839042108923,6917.883,95.438,540.818,538.679,0.0
49459.0,STARLINK-3141,PAYLOAD,2023-10-31 18:59:53,15.08841075,0.0001532,53.216,119.3537,93.3749,266.7418,3.3513e-05,2.45e-06,0.0,0 STARLINK-3141,1 49459U 21104BD  23304.79159513  .00000245  00000-0  33513-4 0  9991,2 49459  53.2160 119.3537 0001532  93.3749 266.7418 15.08841075110033,6917.877,95.437,540.802,538.682,0.0
49459.0,STARLINK-3141,PAYLOAD,2023-11-01 04:32:12,15.08840764,0.0001533,53.2162,117.5695,93.0149,267.1018,2.4577e-05,1.03e-06,0.0,0 STARLINK-3141,1 49459U 21104BD  23305.18903572  .00000103  00000-0  24577-4 0  9990,2 49459  53.2162 117.5695 0001533  93.0149 267.1018 15.08840764109024,6917.878,95.438,540.804,538.683,0.0
49459.0,STARLINK-3141,PAYLOAD,2023-11-01 20:26:04,15.08842927,0.0001454,53.2165,114.5954,90.5372,269.5786,0.00016511,2.341e-05,0.0,0 STARLINK-3141,1 49459U 21104BD  23305.85143617  .00002341  00000-0  16511-3 0  9994,2 49459  53.2165 114.5954 0001454  90.5372 269.5786 15.08842927110195,6917.871,95.437,540.742,538.731,0.0
49459.0,STARLINK-3141,PAYLOAD,2023-11-02 10:44:32,15.0883707,0.0001459,53.2159,111.9182,89.6089,270.507,0.00019426,2.805e-05,0.0,0 STARLINK-3141,1 49459U 21104BD  23306.44760006  .00002805  00000-0  19426-3 0  9990,2 49459  53.2159 111.9182 0001459  89.6089 270.5070 15.08837070110282,6917.889,95.438,540.764,538.745,0.0
49459.0,STARLINK-3141,PAYLOAD,2023-11-02 18:41:27,15.08844784,0.0001464,53.2162,110.4317,88.3358,271.7802,0.00013848,1.917e-05,0.0,0 STARLINK-3141,1 49459U 21104BD  23306.77879570  .00001917  00000-0  13848-3 0  9998,2 49459  53.2162 110.4317 0001464  88.3358 271.7802 15.08844784109263,6917.866,95.437,540.744,538.718,0.0
49459.0,STARLINK-3141,PAYLOAD,2023-11-03 13:46:05,15.08838728,0.0001369,53.2153,106.8626,84.5873,275.5275,8.0202e-05,9.89e-06,0.0,0 STARLINK-3141,1 49459U 21104BD  23307.57368024  .00000989  00000-0  80202-4 0  9991,2 49459  53.2153 106.8626 0001369  84.5873 275.5275 15.08838728109389,6917.884,95.438,540.696,538.802,0.0
49459.0,STARLINK-3141,PAYLOAD,2023-11-03 20:07:38,15.08844478,0.0001372,53.2153,105.6732,83.6848,276.43,0.00019142,2.76e-05,0.0,0 STARLINK-3141,1 49459U 21104BD  23307.83863797  .00002760  00000-0  19142-3 0  9990,2 49459  53.2153 105.6732 0001372  83.6848 276.4300 15.08844478110492,6917.867,95.437,540.681,538.783,0.0
